1 27424U 02022A   11259.82903854 +.00000510 +00000-0 +12322-3 0 00677
2 27424 098.2016 199.1500 0001354 086.9441 273.1907 14.57110088498417